HST                     
1 20580U 90037B   26169.12115247  .00005032  00000+0  15694-3 0  9998
2 20580  28.4721  74.1921 0001766 152.2420 207.8270 15.30755230788719
POLAR                   
1 23802U 96013A   26168.80723713  .00000114  00000+0  00000+0 0  9992
2 23802  79.8548 227.0450 6471047 209.0570  89.8865  1.29846132144863
SWAS                    
1 25560U 98071A   26169.40716125  .00002234  00000+0  14501-3 0  9997
2 25560  69.8945 224.3732 0008659 258.7896 101.2295 15.09631456497456
CXO                     
1 25867U 99040B   26172.02247085  .00000453  00000+0  00000+0 0  9996
2 25867  56.2474 116.4966 7828329 310.2765   0.2930  0.37807394 17333
XMM-NEWTON              
1 25989U 99066A   26169.34668136 -.00000002  00000+0  00000+0 0  9995
2 25989  64.4794 282.9700 4673195  64.9038   0.0897  0.50127427 23010
TERRA                   
1 25994U 99068A   26169.81215806  .00000297  00000+0  69456-4 0  9997
2 25994  97.9456 219.2940 0001713 183.9700 311.2446 14.61104230409846
CLUSTER II-FM7 (SAMBA)  
1 26410U 00041A   26170.36958808  .00004714  00000+0  00000+0 0  9995
2 26410 149.9200  51.3283 9058303 268.5109 359.4853  0.44833363 20329
CLUSTER II-FM8 (TANGO)  
1 26464U 00045B   26166.18760269  .00011725  00000+0  00000+0 0  9995
2 26464 150.1504  51.7507 9057004 268.7261   2.8044  0.44418308 20307
ODIN                    
1 26702U 01007A   26169.68178970  .00153947  00000+0  96741-3 0  9993
2 26702  97.3818 210.7208 0006625 142.4379 217.7350 15.76258882389630
TIMED                   
1 26998U 01055B   26169.61389057  .00000795  00000+0  75724-4 0  9997
2 26998  74.0673 232.1460 0001200 333.0869  27.0253 14.95297034331039
CORIOLIS                
1 27640U 03001A   26169.74741235  .00000070  00000+0  53371-4 0  9999
2 27640  98.7124 176.6084 0013481 204.0411 156.0138 14.19945168214440
SORCE                   
1 27651U 03004A   26169.53424539  .00002036  00000+0  15645-3 0  9991
2 27651  39.9902 253.9929 0016309  59.4414 300.7987 15.03718811272101
MOST                    
1 27843U 03031D   26169.76001382  .00000036  00000+0  36668-4 0  9993
2 27843  98.7044 177.4641 0008772 245.3479 114.6785 14.21322707190939
SCISAT 1                
1 27858U 03036A   26169.30611021  .00000390  00000+0  54451-4 0  9994
2 27858  73.9283 169.1196 0008516 238.9735 121.0606 14.81448472231616
SWIFT                   
1 28485U 04047A   26169.33187220  .00042658  00000+0  35233-3 0  9995
2 28485  20.5514 176.0679 0001495 306.1667  53.8640 15.68419656187047
HINODE (SOLAR-B)        
1 29479U 06041A   26169.75240309  .00000519  00000+0  97550-4 0  9990
2 29479  98.0545 185.8818 0015978 284.3527  75.5904 14.68624897 55100
SHIJIAN-6 02A (SJ-6 02A)
1 29505U 06046A   26169.87260641  .00003288  00000+0  17013-3 0  9990
2 29505  97.6350 210.9520 0004496 121.1721 238.9954 15.16954359 72524
SHIJIAN-6 02B (SJ-6 02B)
1 29506U 06046B   26169.81256829  .00000921  00000+0  76016-4 0  9998
2 29506  97.7153 198.8616 0015412  55.9298 304.3387 15.01380147 70988
FGRST (GLAST)           
1 33053U 08029A   26169.73458750  .00002162  00000+0  73341-4 0  9998
2 33053  25.5804 193.7373 0007934 347.8299  12.2047 15.23951331996078
SDO                     
1 36395U 10005A   26168.41002763 -.00000096  00000+0  00000+0 0  9992
2 36395  34.6527  86.3378 0001734  44.0102 180.8312  1.00269958 60061
CRYOSAT 2               
1 36508U 10013A   26169.87343279  .00000189  00000+0  46177-4 0  9990
2 36508  92.0357 277.7113 0002139  90.3408 269.8045 14.51899734858328
X-SAT                   
1 37389U 11015C   26169.91045299  .00000192  00000+0  99158-4 0  9998
2 37389  98.3512 146.8520 0013781 343.4907  16.5823 14.25207081787924
GCOM-W1 (SHIZUKU)       
1 38337U 12025A   26169.81648034  .00000349  00000+0  87400-4 0  9990
2 38337  98.2021 110.3474 0001764  74.0982 338.1707 14.57125866749279
NUSTAR                  
1 38358U 12031A   26169.91668980  .00010298  00000+0  58155-3 0  9991
2 38358   6.0277  21.1605 0007389 140.8065   7.4964 15.08812396  1304
NEOSSAT                 
1 39089U 13009D   26169.74261831  .00000103  00000+0  50329-4 0  9994
2 39089  98.4178 349.7382 0009942 238.5760 121.4455 14.35826879696960
BRITE-AUSTRIA           
1 39091U 13009F   26169.74047145  .00000124  00000+0  56763-4 0  9998
2 39091  98.3995 349.1376 0009202 231.3134 128.7230 14.36542636697274
IRIS                    
1 39197U 13033A   26169.51170041  .00000763  00000+0  93582-4 0  9998
2 39197  97.9328   8.7846 0023454 317.3281  42.6112 14.85887377700578
HISAKI (SPRINT-A)       
1 39253U 13049A   26169.82280810  .00000101  00000+0  52403-4 0  9991
2 39253  29.7179 211.6971 0136854  30.1120 330.7239 13.55544874631643
CASSIOPE                
1 39265U 13055A   26169.80209391  .00041208 -55069-6  44865-3 0  9992
2 39265  80.9136  64.7605 0292271  57.0344 305.8624 15.25324326667918
STSAT-3                 
1 39422U 13066G   26169.91059854  .00002721  00000+0  20780-3 0  9992
2 39422  97.6228 139.7714 0011092  40.5286 319.6763 15.02765344684466
SWARM B                 
1 39451U 13067A   26169.77051730  .00002742  00000+0  97471-4 0  9999
2 39451  87.7442 341.8351 0003258  85.2103 274.9518 15.28559456683483
